[{"OBJECT_NAME":"ONEWEB-0520","OBJECT_ID":"2022-138AB","EPOCH":"2026-03-09T17:36:59.960448","MEAN_MOTION":13.19725271,"ECCENTRICITY":0.00017051,"INCLINATION":87.9235,"RA_OF_ASC_NODE":324.7788,"ARG_OF_PERICENTER":89.3661,"MEAN_ANOMALY":270.7667,"EPHEMERIS_TYPE":0,"CLASSIFICATION_TYPE":"U","NORAD_CAT_ID":54138,"ELEMENT_SET_NO":999,"REV_AT_EPOCH":16370,"BSTAR":-0.00024641863,"MEAN_MOTION_DOT":-8.6e-7,"MEAN_MOTION_DDOT":0},{"OBJECT_NAME":"SL-14 DEB","OBJECT_ID":"1991-056BM","EPOCH":"2026-03-09T10:16:53.929344","MEAN_MOTION":13.2084664,"ECCENTRICITY":0.00056306,"INCLINATION":82.5312,"RA_OF_ASC_NODE":198.2674,"ARG_OF_PERICENTER":238.6241,"MEAN_ANOMALY":121.4333,"EPHEMERIS_TYPE":0,"CLASSIFICATION_TYPE":"U","NORAD_CAT_ID":45323,"ELEMENT_SET_NO":999,"REV_AT_EPOCH":29022,"BSTAR":0.0014558607,"MEAN_MOTION_DOT":6.05e-6,"MEAN_MOTION_DDOT":0}]
